COMMENT,ORIGINATOR,NORAD_CAT_ID,OBJECT_NAME,OBJECT_TYPE,CLASSIFICATION_TYPE,INTLDES,EPOCH,EPOCH_MICROSECONDS,MEAN_MOTION,ECCENTRICITY,INCLINATION,RA_OF_ASC_NODE,ARG_OF_PERICENTER,MEAN_ANOMALY,EPHEMERIS_TYPE,ELEMENT_SET_NO,REV_AT_EPOCH,BSTAR,MEAN_MOTION_DOT,MEAN_MOTION_DDOT,FILE,TLE_LINE0,TLE_LINE1,TLE_LINE2,OBJECT_ID,OBJECT_NUMBER,SEMIMAJOR_AXIS,PERIOD,APOGEE,PERIGEE,DECAYED
"GENERATED VIA SPACETRACK.ORG API","18 SPCS","55092","SPACEBEE-166","PAYLOAD","U","23001CM","2023-12-01 03:47:26","489472","15.29666966","0.0014273","97.4525","34.7055","133.4951","226.7478","0","999","5054","0.0014118","0.000408","0","4115516","0 SPACEBEE-166","1 55092U 23001CM  23335.15794548  .00040800  00000-0  14118-2 0  9995","2 55092  97.4525  34.7055 0014273 133.4951 226.7478 15.29666966 50548","2023-001CM","55092","6854.944","94.138","486.593","467.025","0"
"GENERATED VIA SPACETRACK.ORG API","18 SPCS","55092","SPACEBEE-166","PAYLOAD","U","23001CM","2023-12-01 17:55:12","797760","15.2972999","0.0014294","97.4523","35.2954","131.6985","228.5481","0","999","5063","0.0017605","0.00051064","0","4116700","0 SPACEBEE-166","1 55092U 23001CM  23335.74667590  .00051064  00000-0  17605-2 0  9994","2 55092  97.4523  35.2954 0014294 131.6985 228.5481 15.29729990 50631","2023-001CM","55092","6854.756","94.134","486.419","466.823","0"
"GENERATED VIA SPACETRACK.ORG API","18 SPCS","55092","SPACEBEE-166","PAYLOAD","U","23001CM","2023-12-01 17:55:12","797760","15.2972999","0.0014294","97.4523","35.2954","131.6985","228.5481","0","999","5063","0.0017605","0.00051064","0","4116981","0 SPACEBEE-166","1 55092U 23001CM  23335.74667590  .00051064  00000-0  17605-2 0  9994","2 55092  97.4523  35.2954 0014294 131.6985 228.5481 15.29729990 50631","2023-001CM","55092","6854.756","94.134","486.419","466.823","0"
"GENERATED VIA SPACETRACK.ORG API","18 SPCS","55092","SPACEBEE-166","PAYLOAD","U","23001CM","2023-12-02 01:46:10","832736","15.29799749","0.0014273","97.4522","35.6231","130.5524","229.6961","0","999","5068","0.0032567","0.00095277","0","4118063","0 SPACEBEE-166","1 55092U 23001CM  23336.07373649  .00095277  00000-0  32567-2 0  9998","2 55092  97.4522  35.6231 0014273 130.5524 229.6961 15.29799749 50685","2023-001CM","55092","6854.547","94.130","486.196","466.629","0"
"GENERATED VIA SPACETRACK.ORG API","18 SPCS","55092","SPACEBEE-166","PAYLOAD","U","23001CM","2023-12-02 01:46:10","832736","15.29799749","0.0014273","97.4522","35.6231","130.5524","229.6961","0","999","5068","0.0032567","0.00095277","0","4118466","0 SPACEBEE-166","1 55092U 23001CM  23336.07373649  .00095277  00000-0  32567-2 0  9998","2 55092  97.4522  35.6231 0014273 130.5524 229.6961 15.29799749 50685","2023-001CM","55092","6854.547","94.130","486.196","466.629","0"
"GENERATED VIA SPACETRACK.ORG API","18 SPCS","55092","SPACEBEE-166","PAYLOAD","U","23001CM","2023-12-02 17:28:04","537920","15.29840966","0.0014256","97.4521","36.279","128.5501","231.7019","0","999","5078","0.0013165","0.00038232","0","4118925","0 SPACEBEE-166","1 55092U 23001CM  23336.72783030  .00038232  00000-0  13165-2 0  9990","2 55092  97.4521  36.2790 0014256 128.5501 231.7019 15.29840966 50781","2023-001CM","55092","6854.424","94.127","486.061","466.518","0"
"GENERATED VIA SPACETRACK.ORG API","18 SPCS","55092","SPACEBEE-166","PAYLOAD","U","23001CM","2023-12-02 17:28:04","537920","15.29840966","0.0014256","97.4521","36.279","128.5501","231.7019","0","999","5078","0.0013165","0.00038232","0","4119201","0 SPACEBEE-166","1 55092U 23001CM  23336.72783030  .00038232  00000-0  13165-2 0  9990","2 55092  97.4521  36.2790 0014256 128.5501 231.7019 15.29840966 50781","2023-001CM","55092","6854.424","94.127","486.061","466.518","0"
"GENERATED VIA SPACETRACK.ORG API","18 SPCS","55092","SPACEBEE-166","PAYLOAD","U","23001CM","2023-12-03 02:53:11","683104","15.29877373","0.0014312","97.452","36.6721","127.3626","232.892","0","999","5084","0.00093063","0.00026995","0","4120389","0 SPACEBEE-166","1 55092U 23001CM  23337.12027411  .00026995  00000-0  93063-3 0  9998","2 55092  97.4520  36.6721 0014312 127.3626 232.8920 15.29877373 50848","2023-001CM","55092","6854.316","94.125","485.990","466.371","0"
"GENERATED VIA SPACETRACK.ORG API","18 SPCS","55092","SPACEBEE-166","PAYLOAD","U","23001CM","2023-12-04 04:00:08","136576","15.29944736","0.0014335","97.4521","37.7218","123.6457","236.6153","0","999","5100","0.0010767","0.00031327","0","4121317","0 SPACEBEE-166","1 55092U 23001CM  23338.16676084  .00031327  00000-0  10767-2 0  9993","2 55092  97.4521  37.7218 0014335 123.6457 236.6153 15.29944736 51005","2023-001CM","55092","6854.114","94.121","485.805","466.154","0"
"GENERATED VIA SPACETRACK.ORG API","18 SPCS","55092","SPACEBEE-166","PAYLOAD","U","23001CM","2023-12-04 04:00:08","136576","15.29944736","0.0014335","97.4521","37.7218","123.6457","236.6153","0","999","5100","0.0010767","0.00031327","0","4122164","0 SPACEBEE-166","1 55092U 23001CM  23338.16676084  .00031327  00000-0  10767-2 0  9993","2 55092  97.4521  37.7218 0014335 123.6457 236.6153 15.29944736 51005","2023-001CM","55092","6854.114","94.121","485.805","466.154","0"
"GENERATED VIA SPACETRACK.ORG API","18 SPCS","55092","SPACEBEE-166","PAYLOAD","U","23001CM","2023-12-04 14:59:24","125856","15.29973802","0.0014311","97.4523","38.1812","121.9869","238.2765","0","999","5107","0.0010803","0.0003146","0","4122657","0 SPACEBEE-166","1 55092U 23001CM  23338.62458479  .00031460  00000-0  10803-2 0  9999","2 55092  97.4523  38.1812 0014311 121.9869 238.2765 15.29973802 51074","2023-001CM","55092","6854.028","94.119","485.701","466.084","0"
"GENERATED VIA SPACETRACK.ORG API","18 SPCS","55092","SPACEBEE-166","PAYLOAD","U","23001CM","2023-12-05 03:32:50","98848","15.30004241","0.0014255","97.4522","38.7058","120.2054","240.06","0","999","5115","0.0010559","0.00030774","0","4123878","0 SPACEBEE-166","1 55092U 23001CM  23339.14780207  .00030774  00000-0  10559-2 0  9999","2 55092  97.4522  38.7058 0014255 120.2054 240.0600 15.30004241 51158","2023-001CM","55092","6853.937","94.117","485.572","466.031","0"
"GENERATED VIA SPACETRACK.ORG API","18 SPCS","55092","SPACEBEE-166","PAYLOAD","U","23001CM","2023-12-06 03:05:28","658688","15.30064453","0.0014241","97.4522","39.6896","117.1236","243.1458","0","999","5130","0.0010119","0.00029538","0","4124675","0 SPACEBEE-166","1 55092U 23001CM  23340.12880392  .00029538  00000-0  10119-2 0  9993","2 55092  97.4522  39.6896 0014241 117.1236 243.1458 15.30064453 51303","2023-001CM","55092","6853.757","94.114","485.382","465.861","0"
"GENERATED VIA SPACETRACK.ORG API","18 SPCS","55092","SPACEBEE-166","PAYLOAD","U","23001CM","2023-12-06 03:05:28","658688","15.30064453","0.0014241","97.4522","39.6896","117.1236","243.1458","0","999","5130","0.0010119","0.00029538","0","4125534","0 SPACEBEE-166","1 55092U 23001CM  23340.12880392  .00029538  00000-0  10119-2 0  9993","2 55092  97.4522  39.6896 0014241 117.1236 243.1458 15.30064453 51303","2023-001CM","55092","6853.757","94.114","485.382","465.861","0"
"GENERATED VIA SPACETRACK.ORG API","18 SPCS","55092","SPACEBEE-166","PAYLOAD","U","23001CM","2023-12-07 04:12:14","284512","15.30122145","0.001434","97.4525","40.7394","113.5832","246.6916","0","999","5146","0.00087549","0.00025579","0","4126292","0 SPACEBEE-166","1 55092U 23001CM  23341.17516533  .00025579  00000-0  87549-3 0  9995","2 55092  97.4525  40.7394 0014340 113.5832 246.6916 15.30122145 51461","2023-001CM","55092","6853.585","94.110","485.278","465.622","0"
"GENERATED VIA SPACETRACK.ORG API","18 SPCS","55092","SPACEBEE-166","PAYLOAD","U","23001CM","2023-12-07 04:12:14","284512","15.30122145","0.001434","97.4525","40.7394","113.5832","246.6916","0","999","5146","0.00087549","0.00025579","0","4127218","0 SPACEBEE-166","1 55092U 23001CM  23341.17516533  .00025579  00000-0  87549-3 0  9995","2 55092  97.4525  40.7394 0014340 113.5832 246.6916 15.30122145 51461","2023-001CM","55092","6853.585","94.110","485.278","465.622","0"
"GENERATED VIA SPACETRACK.ORG API","18 SPCS","55092","SPACEBEE-166","PAYLOAD","U","23001CM","2023-12-08 03:44:46","902624","15.30163264","0.0014402","97.4523","41.7231","110.403","249.8759","0","999","5161","0.00072784","0.00021268","0","4128495","0 SPACEBEE-166","1 55092U 23001CM  23342.15609841  .00021268  00000-0  72784-3 0  9995","2 55092  97.4523  41.7231 0014402 110.4030 249.8759 15.30163264 51619","2023-001CM","55092","6853.462","94.108","485.197","465.456","0"
"GENERATED VIA SPACETRACK.ORG API","18 SPCS","55092","SPACEBEE-166","PAYLOAD","U","23001CM","2023-12-08 03:44:46","902624","15.30163264","0.0014402","97.4523","41.7231","110.403","249.8759","0","999","5161","0.00072784","0.00021268","0","4128726","0 SPACEBEE-166","1 55092U 23001CM  23342.15609841  .00021268  00000-0  72784-3 0  9995","2 55092  97.4523  41.7231 0014402 110.4030 249.8759 15.30163264 51619","2023-001CM","55092","6853.462","94.108","485.197","465.456","0"
"GENERATED VIA SPACETRACK.ORG API","18 SPCS","55092","SPACEBEE-166","PAYLOAD","U","23001CM","2023-12-09 03:17:17","251008","15.30203602","0.0014641","97.4523","42.707","108.023","252.2607","0","999","5176","0.00073798","0.00021595","0","4130247","0 SPACEBEE-166","1 55092U 23001CM  23343.13700522  .00021595  00000-0  73798-3 0  9991","2 55092  97.4523  42.7070 0014641 108.0230 252.2607 15.30203602 51768","2023-001CM","55092","6853.341","94.105","485.240","465.172","0"
"GENERATED VIA SPACETRACK.ORG API","18 SPCS","55092","SPACEBEE-166","PAYLOAD","U","23001CM","2023-12-10 16:57:13","284864","15.30264769","0.0014294","97.4524","44.2816","102.3","257.9841","0","999","5200","0.00062326","0.0001825","0","4132067","0 SPACEBEE-166","1 55092U 23001CM  23344.70640376  .00018250  00000-0  62326-3 0  9994","2 55092  97.4524  44.2816 0014294 102.3000 257.9841 15.30264769 52001","2023-001CM","55092","6853.159","94.101","484.820","465.228","0"
